NOAA 2 (ITOS-D)
1 06235U 72082A   25305.55133552 -.00000014  00000-0  20811-3 0  9990
2 06235 102.0222 316.5291 0003855 243.6973 268.2855 12.53206635426437
SOLRAD-7B
1 01291U 65016D   25305.44663834  .00000056  00000-0  80494-4 0  9994
2 01291  70.0809   0.4352 0018617  55.3598 304.9260 13.94936983 84945
OSCAR-7 (AO-7)
1 07530U 74089B   25305.50003439 -.00000019  00000-0  17474-3 0  9999
2 07530 101.9981 311.3305 0012058 204.7394 309.0030 12.53692994331986
UOSAT-2 (UO-11)
1 14781U 84021B   25305.62807009  .00001928  00000-0  20597-3 0  9999
2 14781  97.7744 269.3157 0006738 206.1947 153.8931 14.89929452223232
FLTSATCOM-7 (USA-20)
1 17181U 86096A   25305.51338789 -.00000133  00000-0  00000-0 0  9994
2 17181  12.8871 341.5119 0041813 320.5088 215.6957  0.98927640149716
FLTSATCOM-8 (USA-46)
1 20253U 89077A   25305.47767973 -.00000357  00000-0  00000-0 0  9994
2 20253  12.4859 352.5228 0006061 251.5187  94.6720  1.00268811258271
OSCAR 16 (PACSAT)
1 20439U 90005D   25305.33481346  .00000203  00000-0  89792-4 0  9993
2 20439  98.8800 330.3705 0010725 174.3648 208.4676 14.33835199869284
LUSAT (LO-19)
1 20442U 90005G   25305.03133382  .00000203  00000-0  89275-4 0  9994
2 20442  98.8991 315.4104 0012120 150.7387 209.4478 14.34018356869690
UFO 2 (USA 95)
1 22787U 93056A   25303.76795921  .00000136  00000-0  00000-0 0  9998
2 22787  11.8176   4.7847 0005112 240.2405  99.4660  1.00262349116243
EYESAT-1 (AO-27)
1 22825U 93061C   25305.60154524  .00000164  00000-0  79464-4 0  9995
2 22825  98.7203   7.7602 0009219  53.2638 306.9390 14.30853526674453
ITAMSAT (IO-26) 
1 22826U 93061D   25305.43847496  .00000190  00000-0  88723-4 0  9991
2 22826  98.7150   7.4921 0009506  38.5004 321.6855 14.31272178674738
UFO 3 (USA 104)
1 23132U 94035A   25304.89653146 -.00000040  00000-0  00000-0 0  9993
2 23132  12.2664   7.0669 0006286 236.8023 116.4056  1.00254887129402
RADIO ROSTO (RS-15)
1 23439U 94085A   25305.62841146 -.00000035  00000-0  20311-3 0  9993
2 23439  64.8177 311.2379 0148305  46.3440 314.9670 11.27581795270245
UFO 4 (USA 108)
1 23467U 95003A   25305.50192341 -.00000010  00000-0  00000-0 0  9991
2 23467   9.7025  13.9623 0004335 204.0918 176.0060  1.00272723112671
UFO 7 (USA 127)
1 23967U 96042A   25305.03526693 -.00000176  00000-0  00000-0 0  9992
2 23967  10.8970  18.2775 0005638 145.2737 227.3281  1.00268141107203
JAS-2 (FO-29)
1 24278U 96046B   25305.59133171 -.00000019  00000-0  19196-4 0  9994
2 24278  98.5501 180.2410 0349442 326.9492  31.0235 13.53258743442386
UFO 8 (USA 138)
1 25258U 98016A   25305.64661933 -.00000286  00000-0  00000-0 0  9996
2 25258  10.8536  24.0926 0007177 240.4905 147.4815  1.00320622101587
TECHSAT-1B (GO-32)
1 25397U 98043D   25305.47238684  .00000144  00000-0  82411-4 0  9996
2 25397  98.9883 287.7389 0002003 123.7690 236.3679 14.24359285418912
ISS (ZARYA)
1 25544U 98067A   25305.52050362  .00011974  00000-0  21987-3 0  9990
2 25544  51.6344 346.5423 0004933   5.4437 354.6605 15.49679820536468
UFO 10 (USA 146)
1 25967U 99063A   25305.03518027 -.00000176  00000-0  00000-0 0  9992
2 25967   9.8187  28.3752 0006561 219.8116 142.0744  1.00269565 95063
PCSAT (NO-44)
1 26931U 01043C   25305.10489092  .00000284  00000-0  13725-3 0  9992
2 26931  67.0486 114.1445 0007148 272.2946  87.7338 14.31817460257797
PROBA-1
1 26958U 01049B   25305.57469149  .00002455  00000-0  16664-3 0  9996
2 26958  97.9587 301.4058 0056733 170.2014 190.0333 15.06128380309349
SAUDISAT-1C (SO-50)
1 27607U 02058C   25304.90802068  .00002012  00000-0  26007-3 0  9997
2 27607  64.5513 114.8631 0069550 304.3539  55.0999 14.82152704230617
CUTE-1 (CO-55)
1 27844U 03031E   25305.48970019  .00000464  00000-0  22060-3 0  9992
2 27844  98.6781 311.9224 0010537 123.3264 236.8925 14.24125923159266
CUBESAT XI-IV (CO-57)
1 27848U 03031J   25305.01453055  .00000401  00000-0  19554-3 0  9996
2 27848  98.6810 311.3482 0010163 140.8620 219.3295 14.23441642158913
MOZHAYETS-4 (RS-22)
1 27939U 03042A   25305.61472481  .00001754  00000-0  28258-3 0  9992
2 27939  98.3371 118.7265 0010242 270.6070 177.9946 14.72788774182047
UFO 11 (USA 174)
1 28117U 03057A   25305.48100416 -.00000093  00000-0  00000-0 0  9996
2 28117   8.7246  34.8779 0005193 207.7051  47.1666  1.00279309 80162
CUBESAT XI-V (CO-58)
1 28895U 05043F   25304.97011440  .00002737  00000-0  44736-3 0  9990
2 28895  98.2695  91.3563 0013931 205.6479 154.4038 14.71637735 68171
CAPE-1
1 31130U 07012P   25305.44817890  .00002634  00000-0  48662-3 0  9998
2 31130  98.4172 269.3715 0086179  62.3273 298.6642 14.63936461985011
CUTE-1.7+APD II (CO-65)
1 32785U 08021C   25305.59531585  .00007060  00000-0  48428-3 0  9994
2 32785  97.8041 278.1349 0011750  82.5888 277.6674 15.06280887950898
SEEDS-II (CO-66)
1 32791U 08021J   25305.48012128  .00016602  00000-0  70229-3 0  9992
2 32791  97.7421 289.2749 0005580  55.0260 305.1499 15.23272380952517
YUBILEINY (RS-30)
1 32953U 08025A   25305.58602177  .00000053  00000-0  30596-3 0  9992
2 32953  82.4998 137.0219 0019965  88.4373 271.8994 12.43170010791411
KKS-1 (KISEKI)
1 33499U 09002H   25305.56521104  .00002394  00000-0  30723-3 0  9994
2 33499  98.1138 219.5752 0007014 317.3990  42.6678 14.82190860902468
SWISSCUBE
1 35932U 09051B   25305.49777485  .00001799  00000-0  37038-3 0  9993
2 35932  98.4135 204.3439 0006199 191.1552 168.9512 14.61768006855883
BEESAT
1 35933U 09051C   25305.46435526  .00001528  00000-0  32075-3 0  9994
2 35933  98.4068 204.4000 0004415 203.5211 156.5788 14.61116151855924
ITUPSAT-1
1 35935U 09051E   25305.46451690  .00001407  00000-0  30415-3 0  9998
2 35935  98.4161 203.8172 0006477 218.9723 141.1010 14.59885142855503
PROBA-2
1 36037U 09059B   25305.44212557  .00000433  00000-0  11171-3 0  9991
2 36037  98.2390 127.0268 0012002 263.7777  96.2053 14.54660311848413
XIWANG-1 (HOPE-1)
1 36122U 09072B   25305.62590005 -.00000033  00000-0  29428-4 0  9990
2 36122 100.3700 258.4431 0007937  37.1583 323.0079 13.16430543763063
EWS-G2 (GOES-15)
1 36411U 10008A   25305.62273737  .00000047  00000-0  00000-0 0  9997
2 36411   0.7048  85.7878 0006169 154.9093  86.2844  1.00275633 57351
TISAT-1
1 36799U 10035E   25305.30267590  .00019613  00000-0  87858-3 0  9999
2 36799  98.0550 228.7290 0002847  20.9434 339.1916 15.21296878832932
HORYU-2
1 38340U 12025D   25305.33763529  .00005619  00000-0  60418-3 0  9994
2 38340  98.1925  64.6998 0008257 200.4936 159.5950 14.88926407714793
AAUSAT-3
1 39087U 13009B   25305.50961496  .00001092  00000-0  36362-3 0  9990
2 39087  98.3657 129.5776 0011574 171.0808 189.0588 14.39500083664410
STRAND-1
1 39090U 13009E   25305.44819888  .00000521  00000-0  19036-3 0  9999
2 39090  98.3839 126.3971 0008514 184.6057 175.5053 14.36950177664354
CUBEBUG-1 (CAPITAN BETO)
1 39153U 13018D   25305.34195463  .00005637  00000-0  51906-3 0  9999
2 39153  98.1383  90.8757 0012374 178.0231 182.1039 14.95097121676990
PROBA-V
1 39159U 13021A   25305.39192646  .00000147  00000-0  82498-4 0  9996
2 39159  98.3357 290.5800 0005394  82.0760 278.1032 14.23531419648703
ZACUBE-1 (TSHEPISOSAT)
1 39417U 13066B   25305.59894895  .00006383  00000-0  53039-3 0  9995
2 39417  97.7972 262.1188 0041391 288.4233  71.2492 14.98419398646617
TRITON-1
1 39427U 13066M   25305.67848120  .00003806  00000-0  47448-3 0  9999
2 39427  97.8288 215.7848 0090909 255.0998 104.0134 14.80130183640416
DELFI-N3XT
1 39428U 13066N   25305.54569602  .00007892  00000-0  75943-3 0  9991
2 39428  97.8302 221.7271 0078660 242.0004 117.3240 14.90921988640658
GOMX-1
1 39430U 13066Q   25305.54087509  .00002569  00000-0  39703-3 0  9995
2 39430  97.6640 155.2430 0132425  88.1323 273.5044 14.68313812636495
HUMSAT-D
1 39433U 13066T   25305.47524783  .00069608  00000-0  12679-2 0  9999
2 39433  97.5045 305.1691 0005218 348.5845  11.5286 15.49229979651385
VELOX-PII
1 39438U 13066Y   25305.58736161  .00005251  00000-0  51995-3 0  9990
2 39438  97.8449 252.3910 0055709  18.3175 342.0033 14.91112381643899
CUBEBUG-2 (LO-74)
1 39440U 13066AA  25305.41685596  .00005808  00000-0  56753-3 0  9995
2 39440  97.8638 249.1777 0062343  62.5043 298.2494 14.91290007643013
FUNCUBE-1 (AO-73)
1 39444U 13066AE  25305.44596784  .00010846  00000-0  75685-3 0  9995
2 39444  97.8005 268.2617 0037639 256.8830 102.8194 15.04975488645356
UWE-3
1 39446U 13066AG  25305.38521431  .00007054  00000-0  64258-3 0  9998
2 39446  97.8397 255.7433 0051854   0.4474 359.6783 14.94430870643523
UNISAT-6
1 40012U 14033C   25305.41874162  .00004303  00000-0  48379-3 0  9990
2 40012  97.7593  97.8335 0047896  98.7913 261.8731 14.86382334612307
DUCHIFAT-1
1 40021U 14033M   25305.02175968  .00041267  00000-0  11505-2 0  9995
2 40021  98.0861 332.6103 0007840 157.0551 203.1043 15.36626066620431
FUNCUBE-3 (EO-79)
1 40025U 14033R   25305.44188627  .00011054  00000-0  62366-3 0  9994
2 40025  98.0960 296.4564 0007523 290.1939  69.8481 15.13328756618520
SMAP
1 40376U 15003A   25305.59244662  .00000751  00000-0  15430-3 0  9991
2 40376  98.1305 310.9044 0001810  89.3680 270.7730 14.63401249574335
LILACSAT-2
1 40908U 15049K   25305.57890407  .00015525  00000-0  35344-3 0  9995
2 40908  97.4973 329.7357 0008518  12.6555 347.4904 15.43014546560559
LAPAN-A2 (IO-86)
1 40931U 15052B   25151.18580175  .00001241  00000-0  78118-4 0  9996
2 40931   6.0006  24.0987 0012733 338.8432  21.1169 14.78805930523159
LQSAT
1 40958U 15057A   25305.58304703  .00001081  00000-0  16245-3 0  9990
2 40958  97.6604 305.4562 0015751 293.7971  66.1588 14.76342531541721
PRATHAM
1 41783U 16059A   25305.49734750  .00001114  00000-0  20707-3 0  9994
2 41783  97.8274 307.5434 0030449 221.8182 138.0696 14.66717496486138
ALSAT-1N
1 41789U 16059G   25305.62155933  .00001323  00000-0  23398-3 0  9996
2 41789  97.8038 314.2066 0025771 192.5050 167.5520 14.68728274486599
CAS-2T & KS-1Q
1 41847U 16066G   25305.46611391  .00001994  00000-0  28784-3 0  9994
2 41847  98.4082  18.6099 0345507  99.9822 264.0540 14.43979187471920
